[{"OBJECT_NAME":"STARLINK-3687","OBJECT_ID":"2022-029Y","EPOCH":"2026-03-09T10:21:06.260544","MEAN_MOTION":15.08830594,"ECCENTRICITY":0.0001408,"INCLINATION":53.217,"RA_OF_ASC_NODE":80.2799,"ARG_OF_PERICENTER":88.5061,"MEAN_ANOMALY":271.6092,"EPHEMERIS_TYPE":0,"CLASSIFICATION_TYPE":"U","NORAD_CAT_ID":52110,"ELEMENT_SET_NO":999,"REV_AT_EPOCH":22074,"BSTAR":9.478699e-5,"MEAN_MOTION_DOT":1.221e-5,"MEAN_MOTION_DDOT":0},{"OBJECT_NAME":"OBJECT G","OBJECT_ID":"2026-027G","EPOCH":"2026-03-09T21:53:37.288032","MEAN_MOTION":15.12145257,"ECCENTRICITY":0.00120269,"INCLINATION":97.4906,"RA_OF_ASC_NODE":197.8999,"ARG_OF_PERICENTER":227.3105,"MEAN_ANOMALY":132.7114,"EPHEMERIS_TYPE":0,"CLASSIFICATION_TYPE":"U","NORAD_CAT_ID":67752,"ELEMENT_SET_NO":999,"REV_AT_EPOCH":389,"BSTAR":0.00053594907,"MEAN_MOTION_DOT":9.195e-5,"MEAN_MOTION_DDOT":0}]
